COMMENT,ORIGINATOR,NORAD_CAT_ID,OBJECT_NAME,OBJECT_TYPE,CLASSIFICATION_TYPE,INTLDES,EPOCH,EPOCH_MICROSECONDS,MEAN_MOTION,ECCENTRICITY,INCLINATION,RA_OF_ASC_NODE,ARG_OF_PERICENTER,MEAN_ANOMALY,EPHEMERIS_TYPE,ELEMENT_SET_NO,REV_AT_EPOCH,BSTAR,MEAN_MOTION_DOT,MEAN_MOTION_DDOT,FILE,TLE_LINE0,TLE_LINE1,TLE_LINE2,OBJECT_ID,OBJECT_NUMBER,SEMIMAJOR_AXIS,PERIOD,APOGEE,PERIGEE,DECAYED
"GENERATED VIA SPACETRACK.ORG API","18 SPCS","53903","STARLINK-5022","PAYLOAD","U","22119T","2024-05-08 07:34:58","900800","15.08834013","0.0001378","53.2176","93.3502","91.469","268.646","0","999","9048","-0.000051046","-0.000011","0","4310854","0 STARLINK-5022","1 53903U 22119T   24129.31595950 -.00001100  00000-0 -51046-4 0  9994","2 53903  53.2176  93.3502 0001378  91.4690 268.6460 15.08834013 90482","2022-119T","53903","6917.899","95.438","540.717","538.810","0"
"GENERATED VIA SPACETRACK.ORG API","18 SPCS","53903","STARLINK-5022","PAYLOAD","U","22119T","2024-05-08 21:53:26","707488","15.08838905","0.00013","53.2175","90.674","90.6942","269.4199","0","999","9057","0.000014869","-0.00000051","0","4311154","0 STARLINK-5022","1 53903U 22119T   24129.91211467 -.00000051  00000-0  14869-4 0  9993","2 53903  53.2175  90.6740 0001300  90.6942 269.4199 15.08838905 90573","2022-119T","53903","6917.884","95.438","540.648","538.849","0"
"GENERATED VIA SPACETRACK.ORG API","18 SPCS","53903","STARLINK-5022","PAYLOAD","U","22119T","2024-05-09 04:14:58","560288","15.08851568","0.0001273","53.2173","89.4847","88.7888","271.325","0","999","9019","0.000057387","0.00000626","0","4311219","0 STARLINK-5022","1 53903U 22119T   24130.17706667  .00000626  00000-0  57387-4 0  9993","2 53903  53.2173  89.4847 0001273  88.7888 271.3250 15.08851568 90199","2022-119T","53903","6917.845","95.437","540.591","538.829","0"
"GENERATED VIA SPACETRACK.ORG API","18 SPCS","53903","STARLINK-5022","PAYLOAD","U","22119T","2024-05-09 04:14:58","560288","15.08851568","0.0001273","53.2173","89.4847","88.7888","271.325","0","999","9061","0.000057387","0.00000626","0","4311785","0 STARLINK-5022","1 53903U 22119T   24130.17706667  .00000626  00000-0  57387-4 0  9993","2 53903  53.2173  89.4847 0001273  88.7888 271.3250 15.08851568 90616","2022-119T","53903","6917.845","95.437","540.591","538.829","0"
"GENERATED VIA SPACETRACK.ORG API","18 SPCS","53903","STARLINK-5022","PAYLOAD","U","22119T","2024-05-09 13:47:17","720160","15.08844361","0.0001294","53.2169","87.7016","91.8966","268.2174","0","999","9025","0.000029984","0.00000189","0","4311894","0 STARLINK-5022","1 53903U 22119T   24130.57451065  .00000189  00000-0  29984-4 0  9992","2 53903  53.2169  87.7016 0001294  91.8966 268.2174 15.08844361 90258","2022-119T","53903","6917.867","95.437","540.627","538.837","0"
"GENERATED VIA SPACETRACK.ORG API","18 SPCS","53903","STARLINK-5022","PAYLOAD","U","22119T","2024-05-09 13:47:17","720160","15.08844361","0.0001294","53.2169","87.7016","91.8966","268.2174","0","999","9067","0.000029984","0.00000189","0","4312075","0 STARLINK-5022","1 53903U 22119T   24130.57451065  .00000189  00000-0  29984-4 0  9992","2 53903  53.2169  87.7016 0001294  91.8966 268.2174 15.08844361 90674","2022-119T","53903","6917.867","95.437","540.627","538.837","0"
"GENERATED VIA SPACETRACK.ORG API","18 SPCS","53903","STARLINK-5022","PAYLOAD","U","22119T","2024-05-10 04:05:46","336416","15.08837456","0.0001319","53.2183","85.0265","90.6723","269.442","0","999","9034","0.0001858","0.0000267","0","4312155","0 STARLINK-5022","1 53903U 22119T   24131.17067519  .00002670  00000-0  18580-3 0  9992","2 53903  53.2183  85.0265 0001319  90.6723 269.4420 15.08837456 90341","2022-119T","53903","6917.888","95.438","540.666","538.841","0"
"GENERATED VIA SPACETRACK.ORG API","18 SPCS","53903","STARLINK-5022","PAYLOAD","U","22119T","2024-05-10 13:38:05","222400","15.0884075","0.0001395","53.2189","83.2424","91.9416","268.1736","0","999","9082","0.00009733","0.00001261","0","4312738","0 STARLINK-5022","1 53903U 22119T   24131.56811600  .00001261  00000-0  97330-4 0  9999","2 53903  53.2189  83.2424 0001395  91.9416 268.1736 15.08840750 90821","2022-119T","53903","6917.878","95.438","540.708","538.778","0"
"GENERATED VIA SPACETRACK.ORG API","18 SPCS","53903","STARLINK-5022","PAYLOAD","U","22119T","2024-05-10 21:35:01","784544","15.08833775","0.0001347","53.2184","81.7558","94.6022","265.5124","0","999","9087","-0.000064486","-0.00001314","0","4313042","0 STARLINK-5022","1 53903U 22119T   24131.89932621 -.00001314  00000-0 -64486-4 0  9999","2 53903  53.2184  81.7558 0001347  94.6022 265.5124 15.08833775 90873","2022-119T","53903","6917.899","95.438","540.696","538.833","0"
"GENERATED VIA SPACETRACK.ORG API","18 SPCS","53903","STARLINK-5022","PAYLOAD","U","22119T","2024-05-11 03:56:22","299936","15.09003003","0.0001335","53.2182","80.5646","55.0266","305.0852","0","999","9049","0.0013907","0.00022013","0","4313119","0 STARLINK-5022","1 53903U 22119T   24132.16414699  .00022013  00000-0  13907-2 0  9997","2 53903  53.2182  80.5646 0001335  55.0266 305.0852 15.09003003 90494","2022-119T","53903","6917.382","95.427","540.171","538.324","0"
"GENERATED VIA SPACETRACK.ORG API","18 SPCS","53903","STARLINK-5022","PAYLOAD","U","22119T","2024-05-11 11:53:24","883296","15.08896168","0.0001478","53.2186","79.0783","76.6439","283.4718","0","999","9054","0.00041096","0.00006268","0","4313465","0 STARLINK-5022","1 53903U 22119T   24132.49542689  .00006268  00000-0  41096-3 0  9999","2 53903  53.2186  79.0783 0001478  76.6439 283.4718 15.08896168 90549","2022-119T","53903","6917.709","95.434","540.596","538.551","0"
"GENERATED VIA SPACETRACK.ORG API","18 SPCS","53903","STARLINK-5022","PAYLOAD","U","22119T","2024-05-11 13:28:49","259136","15.08888498","0.0001354","53.2178","78.7797","89.0914","271.0233","0","999","9055","0.00055771","0.00008611","0","4313923","0 STARLINK-5022","1 53903U 22119T   24132.56168124  .00008611  00000-0  55771-3 0  9994","2 53903  53.2178  78.7797 0001354  89.0914 271.0233 15.08888498 90553","2022-119T","53903","6917.732","95.434","540.534","538.660","0"
"GENERATED VIA SPACETRACK.ORG API","18 SPCS","53903","STARLINK-5022","PAYLOAD","U","22119T","2024-05-11 13:28:49","259136","15.08888498","0.0001354","53.2178","78.7797","89.0914","271.0233","0","999","9097","0.00055771","0.00008611","0","4314338","0 STARLINK-5022","1 53903U 22119T   24132.56168124  .00008611  00000-0  55771-3 0  9994","2 53903  53.2178  78.7797 0001354  89.0914 271.0233 15.08888498 90979","2022-119T","53903","6917.732","95.434","540.534","538.660","0"
"GENERATED VIA SPACETRACK.ORG API","18 SPCS","53903","STARLINK-5022","PAYLOAD","U","22119T","2024-05-12 03:47:26","602656","15.08687636","0.0001601","53.218","76.1045","101.3589","258.7583","0","999","9064","-0.0022968","-0.00036505","0","4314415","0 STARLINK-5022","1 53903U 22119T   24133.15794679 -.00036505  00000-0 -22968-2 0  9996","2 53903  53.2180  76.1045 0001601 101.3589 258.7583 15.08687636 90646","2022-119T","53903","6918.346","95.447","541.319","539.104","0"
"GENERATED VIA SPACETRACK.ORG API","18 SPCS","53903","STARLINK-5022","PAYLOAD","U","22119T","2024-05-12 11:44:17","743200","15.0881772","0.0001261","53.2181","74.6174","109.4901","250.6227","0","999","9069","-0.00023053","-0.00003953","0","4314859","0 STARLINK-5022","1 53903U 22119T   24133.48909425 -.00003953  00000-0 -23053-3 0  9997","2 53903  53.2181  74.6174 0001261 109.4901 250.6227 15.08817720 90692","2022-119T","53903","6917.948","95.439","540.686","538.941","0"
"GENERATED VIA SPACETRACK.ORG API","18 SPCS","53903","STARLINK-5022","PAYLOAD","U","22119T","2024-05-12 13:19:40","464480","15.08832057","0.0001457","53.2183","74.3207","78.8748","281.2408","0","999","9112","-0.0000022248","-0.00000323","0","4315151","0 STARLINK-5022","1 53903U 22119T   24133.55532945 -.00000323  00000-0 -22248-5 0  9999","2 53903  53.2183  74.3207 0001457  78.8748 281.2408 15.08832057 91123","2022-119T","53903","6917.905","95.438","540.778","538.762","0"
"GENERATED VIA SPACETRACK.ORG API","18 SPCS","53903","STARLINK-5022","PAYLOAD","U","22119T","2024-05-12 13:19:40","464480","15.08832057","0.0001457","53.2183","74.3207","78.8748","281.2408","0","999","9070","-0.0000022248","-0.00000323","0","4315252","0 STARLINK-5022","1 53903U 22119T   24133.55532945 -.00000323  00000-0 -22248-5 0  9999","2 53903  53.2183  74.3207 0001457  78.8748 281.2408 15.08832057 90706","2022-119T","53903","6917.905","95.438","540.778","538.762","0"
"GENERATED VIA SPACETRACK.ORG API","18 SPCS","53903","STARLINK-5022","PAYLOAD","U","22119T","2024-05-13 03:38:07","709568","15.08859988","0.0001361","53.2181","71.6448","71.0711","289.0429","0","999","9079","0.00041911","0.00006392","0","4315580","0 STARLINK-5022","1 53903U 22119T   24134.15147812  .00006392  00000-0  41911-3 0  9997","2 53903  53.2181  71.6448 0001361  71.0711 289.0429 15.08859988 90790","2022-119T","53903","6917.819","95.436","540.626","538.743","0"
"GENERATED VIA SPACETRACK.ORG API","18 SPCS","53903","STARLINK-5022","PAYLOAD","U","22119T","2024-05-13 13:10:27","177024","15.08844714","0.0001665","53.2187","69.8595","82.1217","277.9964","0","999","9127","0.00038536","0.00005851","0","4316169","0 STARLINK-5022","1 53903U 22119T   24134.54892566  .00005851  00000-0  38536-3 0  9991","2 53903  53.2187  69.8595 0001665  82.1217 277.9964 15.08844714 91274","2022-119T","53903","6917.866","95.437","540.883","538.579","0"
"GENERATED VIA SPACETRACK.ORG API","18 SPCS","53903","STARLINK-5022","PAYLOAD","U","22119T","2024-05-13 13:10:27","177024","15.08844714","0.0001665","53.2187","69.8595","82.1217","277.9964","0","999","9085","0.00038536","0.00005851","0","4316195","0 STARLINK-5022","1 53903U 22119T   24134.54892566  .00005851  00000-0  38536-3 0  9991","2 53903  53.2187  69.8595 0001665  82.1217 277.9964 15.08844714 90857","2022-119T","53903","6917.866","95.437","540.883","538.579","0"
